NORAD_CAT_ID,OBJECT_NAME,OBJECT_TYPE,EPOCH,MEAN_MOTION,ECCENTRICITY,INCLINATION,RA_OF_ASC_NODE,ARG_OF_PERICENTER,MEAN_ANOMALY,BSTAR,MEAN_MOTION_DOT,MEAN_MOTION_DDOT,TLE_LINE0,TLE_LINE1,TLE_LINE2,SEMIMAJOR_AXIS,PERIOD,APOGEE,PERIGEE,DECAYED
49147.0,STARLINK-3071,PAYLOAD,2024-05-14 04:50:05,14.98318682,0.0002987,69.9985,129.8721,273.2804,86.8014,8.5553e-05,9.28e-06,0.0,0 STARLINK-3071,1 49147U 21082T   24135.20145173  .00000928  00000-0  85553-4 0  9995,2 49147  69.9985 129.8721 0002987 273.2804  86.8014 14.98318682148601,6950.228,96.108,574.169,570.017,0.0
49147.0,STARLINK-3071,PAYLOAD,2024-05-14 09:38:29,14.98320531,0.000299,69.9985,129.367,273.087,86.9947,7.765e-05,8.33e-06,0.0,0 STARLINK-3071,1 49147U 21082T   24135.40173211  .00000833  00000-0  77650-4 0  9995,2 49147  69.9985 129.3670 0002990 273.0870  86.9947 14.98320531147469,6950.222,96.108,574.165,570.009,0.0
49147.0,STARLINK-3071,PAYLOAD,2024-05-15 04:52:06,14.98324263,0.0003047,69.9981,127.3463,271.8618,88.2192,0.0001371,1.543e-05,0.0,0 STARLINK-3071,1 49147U 21082T   24136.20285274  .00001543  00000-0  13710-3 0  9992,2 49147  69.9981 127.3463 0003047 271.8618  88.2192 14.98324263148759,6950.211,96.107,574.193,569.958,0.0
49147.0,STARLINK-3071,PAYLOAD,2024-05-15 09:40:30,14.98328495,0.0002999,69.9987,126.8418,272.8396,87.2419,0.00019457,2.229e-05,0.0,0 STARLINK-3071,1 49147U 21082T   24136.40312920  .00002229  00000-0  19457-3 0  9999,2 49147  69.9987 126.8418 0002999 272.8396  87.2419 14.98328495147614,6950.198,96.107,574.147,569.978,0.0
49147.0,STARLINK-3071,PAYLOAD,2024-05-16 03:17:58,14.98337727,0.000316,69.998,124.9902,273.2941,86.7856,0.00018653,2.134e-05,0.0,0 STARLINK-3071,1 49147U 21082T   24137.13748180  .00002134  00000-0  18653-3 0  9993,2 49147  69.9980 124.9902 0003160 273.2941  86.7856 14.98337727148894,6950.169,96.107,574.23,569.838,0.0
49147.0,STARLINK-3071,PAYLOAD,2024-05-16 09:42:30,14.98341463,0.0002874,69.9988,124.3164,272.9318,87.1512,0.00023492,2.712e-05,0.0,0 STARLINK-3071,1 49147U 21082T   24137.40451633  .00002712  00000-0  23492-3 0  9996,2 49147  69.9988 124.3164 0002874 272.9318  87.1512 14.98341463147762,6950.157,96.106,574.02,570.025,0.0
49147.0,STARLINK-3071,PAYLOAD,2024-05-16 16:07:02,14.98350316,0.0002848,69.9994,123.6423,276.647,83.4365,-3.9582e-05,-5.65e-06,0.0,0 STARLINK-3071,1 49147U 21082T   24137.67155412 -.00000565  00000-0 -39582-4 0  9995,2 49147  69.9994 123.6423 0002848 276.6470  83.4365 14.98350316148976,6950.13,96.106,573.974,570.016,0.0
49147.0,STARLINK-3071,PAYLOAD,2024-05-17 04:56:07,14.9833574,0.0002704,69.9998,122.2981,266.7571,93.3279,0.00010584,1.17e-05,0.0,0 STARLINK-3071,1 49147U 21082T   24138.20563874  .00001170  00000-0  10584-3 0  9991,2 49147  69.9998 122.2981 0002704 266.7571  93.3279 14.98335740149055,6950.175,96.107,573.919,570.161,0.0
49147.0,STARLINK-3071,PAYLOAD,2024-05-17 08:08:23,14.98334291,0.0002713,69.9995,121.9616,265.6789,94.406,3.2678e-05,2.97e-06,0.0,0 STARLINK-3071,1 49147U 21082T   24138.33916065  .00000297  00000-0  32678-4 0  9997,2 49147  69.9995 121.9616 0002713 265.6789  94.4060 14.98334291147904,6950.18,96.107,573.93,570.159,0.0
49147.0,STARLINK-3071,PAYLOAD,2024-05-17 22:33:36,14.9833278,0.0002782,69.9992,120.4468,270.3694,89.7147,-0.00013588,-1.714e-05,0.0,0 STARLINK-3071,1 49147U 21082T   24138.94000370 -.00001714  00000-0 -13588-3 0  9992,2 49147  69.9992 120.4468 0002782 270.3694  89.7147 14.98332780147997,6950.184,96.107,573.983,570.116,0.0
49147.0,STARLINK-3071,PAYLOAD,2024-05-18 04:58:08,14.98332441,0.0002821,69.9992,119.7736,269.012,91.0716,-9.9076e-05,-1.275e-05,0.0,0 STARLINK-3071,1 49147U 21082T   24139.20704206 -.00001275  00000-0 -99076-4 0  9990,2 49147  69.9992 119.7736 0002821 269.0120  91.0716 14.98332441149207,6950.185,96.107,574.011,570.09,0.0
49147.0,STARLINK-3071,PAYLOAD,2024-05-18 08:10:24,14.98334203,0.0002786,69.9993,119.4368,270.6222,89.4617,-0.00010815,-1.383e-05,0.0,0 STARLINK-3071,1 49147U 21082T   24139.34056088 -.00001383  00000-0 -10815-3 0  9996,2 49147  69.9993 119.4368 0002786 270.6222  89.4617 14.98334203148058,6950.18,96.107,573.981,570.109,0.0
49147.0,STARLINK-3071,PAYLOAD,2024-05-18 16:11:05,14.98303886,0.0002917,69.9989,118.5949,263.173,96.9097,0.00041314,4.837e-05,0.0,0 STARLINK-3071,1 49147U 21082T   24139.67436690  .00004837  00000-0  41314-3 0  9996,2 49147  69.9989 118.5949 0002917 263.1730  96.9097 14.98303886149278,6950.274,96.109,574.166,570.111,0.0
49147.0,STARLINK-3071,PAYLOAD,2024-05-19 05:00:08,14.98334014,0.0002943,69.9987,117.2477,269.5461,90.536,1.3321e-05,6.6e-07,0.0,0 STARLINK-3071,1 49147U 21082T   24140.20843612  .00000066  00000-0  13321-4 0  9991,2 49147  69.9987 117.2477 0002943 269.5461  90.5360 14.98334014149357,6950.18,96.107,574.091,570.0,0.0
49147.0,STARLINK-3071,PAYLOAD,2024-05-19 08:12:25,14.98331831,0.0002904,69.9989,116.9111,267.9832,92.0995,3.2385e-05,2.93e-06,0.0,0 STARLINK-3071,1 49147U 21082T   24140.34195687  .00000293  00000-0  32385-4 0  9991,2 49147  69.9989 116.9111 0002904 267.9832  92.0995 14.98331831148209,6950.187,96.107,574.071,570.034,0.0
49147.0,STARLINK-3071,PAYLOAD,2024-05-20 03:26:02,14.98325538,0.0002943,69.9988,114.891,270.3704,89.7117,8.2563e-05,8.92e-06,0.0,0 STARLINK-3071,1 49147U 21082T   24141.14308031  .00000892  00000-0  82563-4 0  9997,2 49147  69.9988 114.8910 0002943 270.3704  89.7117 14.98325538149499,6950.207,96.107,574.117,570.026,0.0
49147.0,STARLINK-3071,PAYLOAD,2024-05-20 08:14:26,14.98330023,0.0002934,69.9989,114.3858,270.074,90.0083,7.3702e-05,7.86e-06,0.0,0 STARLINK-3071,1 49147U 21082T   24141.34335785  .00000786  00000-0  73702-4 0  9992,2 49147  69.9989 114.3858 0002934 270.0740  90.0083 14.98330023148359,6950.193,96.107,574.097,570.019,0.0
49147.0,STARLINK-3071,PAYLOAD,2024-05-21 05:04:11,14.98328844,0.0002842,69.9993,112.1992,268.8812,91.2022,-1.6423e-06,-1.13e-06,0.0,0 STARLINK-3071,1 49147U 21082T   24142.21124126 -.00000113  00000-0 -16423-5 0  9998,2 49147  69.9993 112.1992 0002842 268.8812  91.2022 14.98328844149650,6950.196,96.107,574.037,570.086,0.0
49147.0,STARLINK-3071,PAYLOAD,2024-05-21 08:16:27,14.98330406,0.0002824,69.9994,111.8628,268.813,91.2705,1.6177e-05,1e-06,0.0,0 STARLINK-3071,1 49147U 21082T   24142.34475978  .00000100  00000-0  16177-4 0  9995,2 49147  69.9994 111.8628 0002824 268.8130  91.2705 14.98330406148504,6950.192,96.107,574.019,570.094,0.0
49147.0,STARLINK-3071,PAYLOAD,2024-05-21 22:41:39,14.98328854,0.0002752,69.9996,110.3475,268.4858,91.5986,2.7238e-05,2.32e-06,0.0,0 STARLINK-3071,1 49147U 21082T   24142.94560041  .00000232  00000-0  27238-4 0  9993,2 49147  69.9996 110.3475 0002752 268.4858  91.5986 14.98328854148590,6950.196,96.107,573.974,570.149,0.0
49147.0,STARLINK-3071,PAYLOAD,2024-05-22 05:06:12,14.98330194,0.0002733,69.9995,109.674,267.4019,92.6827,4.1386e-05,4.01e-06,0.0,0 STARLINK-3071,1 49147U 21082T   24143.21263924  .00000401  00000-0  41386-4 0  9992,2 49147  69.9995 109.6740 0002733 267.4019  92.6827 14.98330194149803,6950.192,96.107,573.957,570.158,0.0
49147.0,STARLINK-3071,PAYLOAD,2024-05-22 08:18:28,14.98331663,0.0002715,69.9996,109.3375,267.1539,92.931,5.6333e-05,5.79e-06,0.0,0 STARLINK-3071,1 49147U 21082T   24143.34615781  .00000579  00000-0  56333-4 0  9992,2 49147  69.9996 109.3375 0002715 267.1539  92.9310 14.98331663148653,6950.188,96.107,573.94,570.166,0.0
49147.0,STARLINK-3071,PAYLOAD,2024-05-22 21:07:32,14.98327602,0.0002595,70.0,107.991,260.7212,99.3654,4.0509e-05,3.9e-06,0.0,0 STARLINK-3071,1 49147U 21082T   24143.88024046  .00000390  00000-0  40509-4 0  9998,2 49147  70.0000 107.9910 0002595 260.7212  99.3654 14.98327602148733,6950.2,96.107,573.869,570.262,0.0
49147.0,STARLINK-3071,PAYLOAD,2024-05-23 05:08:13,14.98326669,0.00026,69.9999,107.1492,261.7297,98.3567,2.5141e-05,2.07e-06,0.0,0 STARLINK-3071,1 49147U 21082T   24144.21404205  .00000207  00000-0  25141-4 0  9997,2 49147  69.9999 107.1492 0002600 261.7297  98.3567 14.98326669149954,6950.203,96.107,573.875,570.261,0.0
49147.0,STARLINK-3071,PAYLOAD,2024-05-23 06:44:21,14.98326585,0.0002616,69.9999,106.9809,263.4663,96.6199,2.1359e-05,1.62e-06,0.0,0 STARLINK-3071,1 49147U 21082T   24144.28080240  .00000162  00000-0  21359-4 0  9990,2 49147  69.9999 106.9809 0002616 263.4663  96.6199 14.98326585148796,6950.203,96.107,573.887,570.25,0.0
49147.0,STARLINK-3071,PAYLOAD,2024-05-23 21:09:33,14.98333878,0.0002669,69.9998,105.4658,266.5367,93.5487,4.834e-05,4.84e-06,0.0,0 STARLINK-3071,1 49147U 21082T   24144.88163680  .00000484  00000-0  48340-4 0  9992,2 49147  69.9998 105.4658 0002669 266.5367  93.5487 14.98333878148883,6950.181,96.107,573.901,570.191,0.0
49147.0,STARLINK-3071,PAYLOAD,2024-05-24 05:10:13,14.98337557,0.0002666,69.9997,104.6241,263.9456,96.14,8.2909e-05,8.97e-06,0.0,0 STARLINK-3071,1 49147U 21082T   24145.21543198  .00000897  00000-0  82909-4 0  9993,2 49147  69.9997 104.6241 0002666 263.9456  96.1400 14.98337557150108,6950.17,96.107,573.887,570.182,0.0
49147.0,STARLINK-3071,PAYLOAD,2024-05-24 06:46:21,14.9833883,0.0002654,69.9998,104.4558,263.5097,96.576,9.6469e-05,1.059e-05,0.0,0 STARLINK-3071,1 49147U 21082T   24145.28219048  .00001059  00000-0  96469-4 0  9991,2 49147  69.9998 104.4558 0002654 263.5097  96.5760 14.98338830148949,6950.166,96.106,573.875,570.186,0.0
49147.0,STARLINK-3071,PAYLOAD,2024-05-24 21:11:34,14.98329941,0.0002325,70.0002,102.9406,260.8944,99.1952,5.2717e-05,5.36e-06,0.0,0 STARLINK-3071,1 49147U 21082T   24145.88303663  .00000536  00000-0  52717-4 0  9991,2 49147  70.0002 102.9406 0002325 260.8944  99.1952 14.98329941150206,6950.193,96.107,573.674,570.442,0.0
49147.0,STARLINK-3071,PAYLOAD,2024-05-24 22:47:42,14.98325701,0.00029,69.9998,102.7727,268.4694,91.6133,-6.007e-06,-1.65e-06,0.0,0 STARLINK-3071,1 49147U 21082T   24145.94980066 -.00000165  00000-0 -60070-5 0  9998,2 49147  69.9998 102.7727 0002900 268.4694  91.6133 14.98325701149044,6950.206,96.107,574.087,570.056,0.0
